{"type": "FeatureCollection", "features": [ {"type": "Feature", "properties": {"norad_id": 54234, "name": "NOAA 21 (JPSS-2)", "group": "weather", "lat": -8.821691107935877, "lon": 95.87265309247418, "alt_km": 832.3001312972174, "timestamp": "2025-12-06T20:37:55.699485+00:00", "meta": {"OBJECT_NAME": "NOAA 21 (JPSS-2)", "OBJECT_ID": "2022-150A", "EPOCH": "2025-12-06T14:40:14.399328", "MEAN_MOTION": 14.19521654, "ECCENTRICITY": 0.000243, "INCLINATION": 98.7453, "RA_OF_ASC_NODE": 276.9963, "ARG_OF_PERICENTER": 49.5251, "MEAN_ANOMALY": 310.6137, "EPHEMERIS_TYPE": 0, "CLASSIFICATION_TYPE": "U", "NORAD_CAT_ID": 54234, "ELEMENT_SET_NO": 999, "REV_AT_EPOCH": 15922, "BSTAR": 0.00012419876, "MEAN_MOTION_DOT": 2.18e-06, "MEAN_MOTION_DDOT": 0}, "tle": {"line1": "1 54234U 22150A   25340.61127777  .00000218  00000+0  12420-3 0  9992", "line2": "2 54234  98.7453 276.9963 0002430  49.5251 310.6137 14.19521654159221"}}, "geometry": {"type": "Point", "coordinates": [95.87265309247418, -8.821691107935877]}}, {"type": "Feature", "properties": {"norad_id": 54743, "name": "METEOSAT-12 (MTG-I1)", "group": "weather", "lat": -0.049512657525763726, "lon": 25.124835927662488, "alt_km": 35789.9163055444, "timestamp": "2025-12-06T20:37:55.699503+00:00", "meta": {"OBJECT_NAME": "METEOSAT-12 (MTG-I1)", "OBJECT_ID": "2022-170C", "EPOCH": "2025-12-06T06:08:38.706720", "MEAN_MOTION": 1.00274269, "ECCENTRICITY": 0.00015447, "INCLINATION": 0.722, "RA_OF_ASC_NODE": 30.5247, "ARG_OF_PERICENTER": 220.4766, "MEAN_ANOMALY": 276.1989, "EPHEMERIS_TYPE": 0, "CLASSIFICATION_TYPE": "U", "NORAD_CAT_ID": 54743, "ELEMENT_SET_NO": 999, "REV_AT_EPOCH": 1104, "BSTAR": 0, "MEAN_MOTION_DOT": 1e-08, "MEAN_MOTION_DDOT": 0}, "tle": {"line1": "1 54743U 22170C   25340.25600355  .00000001  00000+0  00000+0 0  9994", "line2": "2 54743   0.7220  30.5247 0001544 220.4766 276.1989  1.00274269 11047"}}, "geometry": {"type": "Point", "coordinates": [25.124835927662488, -0.049512657525763726]}}, {"type": "Feature", "properties": {"norad_id": 55973, "name": "TIANMU-1 03", "group": "weather", "lat": 70.24993071972968, "lon": 121.78829020377917, "alt_km": 434.29225885422966, "timestamp": "2025-12-06T20:37:55.699524+00:00", "meta": {"OBJECT_NAME": "TIANMU-1 03", "OBJECT_ID": "2023-039A", "EPOCH": "2025-12-06T14:05:13.960896", "MEAN_MOTION": 15.40657425, "ECCENTRICITY": 0.00045066, "INCLINATION": 97.5108, "RA_OF_ASC_NODE": 143.0682, "ARG_OF_PERICENTER": 78.8279, "MEAN_ANOMALY": 281.3473, "EPHEMERIS_TYPE": 0, "CLASSIFICATION_TYPE": "U", "NORAD_CAT_ID": 55973, "ELEMENT_SET_NO": 999, "REV_AT_EPOCH": 15111, "BSTAR": 0.00056798119, "MEAN_MOTION_DOT": 0.00023118, "MEAN_MOTION_DDOT": 0}, "tle": {"line1": "1 55973U 23039A   25340.58696714  .00023118  00000+0  56798-3 0  9998", "line2": "2 55973  97.5108 143.0682 0004506  78.8279 281.3473 15.40657425151117"}}, "geometry": {"type": "Point", "coordinates": [121.78829020377917, 70.24993071972968]}}, {"type": "Feature", "properties": {"norad_id": 55974, "name": "TIANMU-1 04", "group": "weather", "lat": 1.1922725298640844, "lon": -37.30095843463206, "alt_km": 447.04543033992377, "timestamp": "2025-12-06T20:37:55.699541+00:00", "meta": {"OBJECT_NAME": "TIANMU-1 04", "OBJECT_ID": "2023-039B", "EPOCH": "2025-12-06T13:37:33.274272", "MEAN_MOTION": 15.40987962, "ECCENTRICITY": 0.00052164, "INCLINATION": 97.5039, "RA_OF_ASC_NODE": 142.2421, "ARG_OF_PERICENTER": 74.4699, "MEAN_ANOMALY": 285.7123, "EPHEMERIS_TYPE": 0, "CLASSIFICATION_TYPE": "U", "NORAD_CAT_ID": 55974, "ELEMENT_SET_NO": 999, "REV_AT_EPOCH": 15111, "BSTAR": 0.00057812007, "MEAN_MOTION_DOT": 0.00023795, "MEAN_MOTION_DDOT": 0}, "tle": {"line1": "1 55974U 23039B   25340.56774623  .00023795  00000+0  57812-3 0  9992", "line2": "2 55974  97.5039 142.2421 0005216  74.4699 285.7123 15.40987962151112"}}, "geometry": {"type": "Point", "coordinates": [-37.30095843463206, 1.1922725298640844]}}, {"type": "Feature", "properties": {"norad_id": 55975, "name": "TIANMU-1 05", "group": "weather", "lat": -38.22927003614896, "lon": -42.92997129151944, "alt_km": 452.4321118456992, "timestamp": "2025-12-06T20:37:55.699558+00:00", "meta": {"OBJECT_NAME": "TIANMU-1 05", "OBJECT_ID": "2023-039C", "EPOCH": "2025-12-06T13:27:05.680224", "MEAN_MOTION": 15.40613778, "ECCENTRICITY": 0.00043591, "INCLINATION": 97.5085, "RA_OF_ASC_NODE": 142.7267, "ARG_OF_PERICENTER": 95.5259, "MEAN_ANOMALY": 264.6484, "EPHEMERIS_TYPE": 0, "CLASSIFICATION_TYPE": "U", "NORAD_CAT_ID": 55975, "ELEMENT_SET_NO": 999, "REV_AT_EPOCH": 15109, "BSTAR": 0.00058807278, "MEAN_MOTION_DOT": 0.00023906, "MEAN_MOTION_DDOT": 0}, "tle": {"line1": "1 55975U 23039C   25340.56048241  .00023906  00000+0  58807-3 0  9992", "line2": "2 55975  97.5085 142.7267 0004359  95.5259 264.6484 15.40613778151094"}}, "geometry": {"type": "Point", "coordinates": [-42.92997129151944, -38.22927003614896]}}, {"type": "Feature", "properties": {"norad_id": 55976, "name": "TIANMU-1 06", "group": "weather", "lat": 14.254245261774972, "lon": -34.5853304980299, "alt_km": 443.27255997575776, "timestamp": "2025-12-06T20:37:55.699575+00:00", "meta": {"OBJECT_NAME": "TIANMU-1 06", "OBJECT_ID": "2023-039D", "EPOCH": "2025-12-06T13:40:59.253600", "MEAN_MOTION": 15.4104085, "ECCENTRICITY": 0.00047009, "INCLINATION": 97.5096, "RA_OF_ASC_NODE": 143.1966, "ARG_OF_PERICENTER": 90.9833, "MEAN_ANOMALY": 269.1952, "EPHEMERIS_TYPE": 0, "CLASSIFICATION_TYPE": "U", "NORAD_CAT_ID": 55976, "ELEMENT_SET_NO": 999, "REV_AT_EPOCH": 15111, "BSTAR": 0.00058142838, "MEAN_MOTION_DOT": 0.00023972, "MEAN_MOTION_DDOT": 0}, "tle": {"line1": "1 55976U 23039D   25340.57013025  .00023972  00000+0  58143-3 0  9992", "line2": "2 55976  97.5096 143.1966 0004700  90.9833 269.1952 15.41040850151114"}}, "geometry": {"type": "Point", "coordinates": [-34.5853304980299, 14.254245261774972]}}, {"type": "Feature", "properties": {"norad_id": 56232, "name": "FENGYUN 3G", "group": "weather", "lat": -41.596276462568035, "lon": -150.42220609732547, "alt_km": 417.9465149418029, "timestamp": "2025-12-06T20:37:55.699591+00:00", "meta": {"OBJECT_NAME": "FENGYUN 3G", "OBJECT_ID": "2023-055A", "EPOCH": "2025-12-06T11:37:33.308256", "MEAN_MOTION": 15.53095552, "ECCENTRICITY": 0.00092335, "INCLINATION": 49.9945, "RA_OF_ASC_NODE": 259.7218, "ARG_OF_PERICENTER": 118.6784, "MEAN_ANOMALY": 241.5113, "EPHEMERIS_TYPE": 0, "CLASSIFICATION_TYPE": "U", "NORAD_CAT_ID": 56232, "ELEMENT_SET_NO": 999, "REV_AT_EPOCH": 15005, "BSTAR": 0.00073488736, "MEAN_MOTION_DOT": 0.00046804, "MEAN_MOTION_DDOT": 0}, "tle": {"line1": "1 56232U 23055A   25340.48441329  .00046804  00000+0  73489-3 0  9997", "line2": "2 56232  49.9945 259.7218 0009233 118.6784 241.5113 15.53095552150054"}}, "geometry": {"type": "Point", "coordinates": [-150.42220609732547, -41.596276462568035]}}, {"type": "Feature", "properties": {"norad_id": 57166, "name": "METEOR-M2 3", "group": "weather", "lat": 0.09115493023641666, "lon": 34.4876039287592, "alt_km": 811.909586302826, "timestamp": "2025-12-06T20:37:55.699613+00:00", "meta": {"OBJECT_NAME": "METEOR-M2 3", "OBJECT_ID": "2023-091A", "EPOCH": "2025-12-06T13:53:11.157504", "MEAN_MOTION": 14.24025017, "ECCENTRICITY": 0.00042447, "INCLINATION": 98.6387, "RA_OF_ASC_NODE": 34.2253, "ARG_OF_PERICENTER": 25.7227, "MEAN_ANOMALY": 334.4162, "EPHEMERIS_TYPE": 0, "CLASSIFICATION_TYPE": "U", "NORAD_CAT_ID": 57166, "ELEMENT_SET_NO": 999, "REV_AT_EPOCH": 12710, "BSTAR": 5.2018901e-05, "MEAN_MOTION_DOT": 7.6e-07, "MEAN_MOTION_DDOT": 0}, "tle": {"line1": "1 57166U 23091A   25340.57860136  .00000076  00000+0  52019-4 0  9993", "line2": "2 57166  98.6387  34.2253 0004244  25.7227 334.4162 14.24025017127106"}}, "geometry": {"type": "Point", "coordinates": [34.4876039287592, 0.09115493023641666]}}, {"type": "Feature", "properties": {"norad_id": 57399, "name": "TIANMU-1 07", "group": "weather", "lat": 29.617349544734374, "lon": -144.98789445812199, "alt_km": 478.31627290065353, "timestamp": "2025-12-06T20:37:55.699630+00:00", "meta": {"OBJECT_NAME": "TIANMU-1 07", "OBJECT_ID": "2023-101A", "EPOCH": "2025-12-06T15:15:46.665792", "MEAN_MOTION": 15.27940086, "ECCENTRICITY": 0.00056052, "INCLINATION": 97.2881, "RA_OF_ASC_NODE": 30.6211, "ARG_OF_PERICENTER": 96.83, "MEAN_ANOMALY": 263.3578, "EPHEMERIS_TYPE": 0, "CLASSIFICATION_TYPE": "U", "NORAD_CAT_ID": 57399, "ELEMENT_SET_NO": 999, "REV_AT_EPOCH": 13222, "BSTAR": 0.00044663823, "MEAN_MOTION_DOT": 0.00012118, "MEAN_MOTION_DDOT": 0}, "tle": {"line1": "1 57399U 23101A   25340.63595678  .00012118  00000+0  44664-3 0  9992", "line2": "2 57399  97.2881  30.6211 0005605  96.8300 263.3578 15.27940086132221"}}, "geometry": {"type": "Point", "coordinates": [-144.98789445812199, 29.617349544734374]}}, {"type": "Feature", "properties": {"norad_id": 57400, "name": "TIANMU-1 08", "group": "weather", "lat": -27.896931915509096, "lon": 34.523256305434636, "alt_km": 491.0957225962029, "timestamp": "2025-12-06T20:37:55.699647+00:00", "meta": {"OBJECT_NAME": "TIANMU-1 08", "OBJECT_ID": "2023-101B", "EPOCH": "2025-12-06T14:28:04.999296", "MEAN_MOTION": 15.27924556, "ECCENTRICITY": 0.00075553, "INCLINATION": 97.2869, "RA_OF_ASC_NODE": 30.3878, "ARG_OF_PERICENTER": 100.9217, "MEAN_ANOMALY": 259.2873, "EPHEMERIS_TYPE": 0, "CLASSIFICATION_TYPE": "U", "NORAD_CAT_ID": 57400, "ELEMENT_SET_NO": 999, "REV_AT_EPOCH": 13221, "BSTAR": 0.00043567692, "MEAN_MOTION_DOT": 0.00011817, "MEAN_MOTION_DDOT": 0}, "tle": {"line1": "1 57400U 23101B   25340.60283564  .00011817  00000+0  43568-3 0  9997", "line2": "2 57400  97.2869  30.3878 0007555 100.9217 259.2873 15.27924556132211"}}, "geometry": {"type": "Point", "coordinates": [34.523256305434636, -27.896931915509096]}}]}